[{"OBJECT_NAME":"STARLINK-31491","OBJECT_ID":"2024-036P","EPOCH":"2026-03-09T06:28:46.954560","MEAN_MOTION":15.30188703,"ECCENTRICITY":0.00012684,"INCLINATION":53.1605,"RA_OF_ASC_NODE":80.4539,"ARG_OF_PERICENTER":93.1729,"MEAN_ANOMALY":266.9417,"EPHEMERIS_TYPE":0,"CLASSIFICATION_TYPE":"U","NORAD_CAT_ID":59011,"ELEMENT_SET_NO":999,"REV_AT_EPOCH":11525,"BSTAR":4.0748234e-5,"MEAN_MOTION_DOT":8.47e-6,"MEAN_MOTION_DDOT":0},{"OBJECT_NAME":"CZ-6A DEB","OBJECT_ID":"2022-151QB","EPOCH":"2026-03-08T18:03:47.471328","MEAN_MOTION":15.32168285,"ECCENTRICITY":0.00205863,"INCLINATION":98.6246,"RA_OF_ASC_NODE":151.4486,"ARG_OF_PERICENTER":181.9757,"MEAN_ANOMALY":178.1404,"EPHEMERIS_TYPE":0,"CLASSIFICATION_TYPE":"U","NORAD_CAT_ID":54890,"ELEMENT_SET_NO":999,"REV_AT_EPOCH":17659,"BSTAR":0.012866954,"MEAN_MOTION_DOT":0.00424465,"MEAN_MOTION_DDOT":0}]
